{
  "type": "FeatureCollection",
  "features": [
    {
      "type": "Feature",
      "properties": {
        "norad_id": 36036,
        "name": "SMOS",
        "group": "resource",
        "lat": 2.6172636345872964,
        "lon": -0.19796374194784933,
        "alt_km": 762.0018582805997,
        "timestamp": "2025-12-20T11:30:28.027854+00:00",
        "meta_object_name": "SMOS",
        "meta_object_id": "2009-059A",
        "meta_epoch": "2025-12-20T02:20:51.634176",
        "meta_mean_motion": 14.39747368,
        "meta_eccentricity": 0.0001083,
        "meta_inclination": 98.438,
        "meta_ra_of_asc_node": 179.0374,
        "meta_arg_of_pericenter": 83.3735,
        "meta_mean_anomaly": 276.7577,
        "meta_ephemeris_type": 0,
        "meta_classification_type": "U",
        "meta_norad_cat_id": 36036,
        "meta_element_set_no": 999,
        "meta_rev_at_epoch": 84768,
        "meta_bstar": 0.00010329,
        "meta_mean_motion_dot": 2.8e-06,
        "meta_mean_motion_ddot": 0,
        "tle_line1": "1 36036U 09059A   25354.09781984  .00000280  00000+0  10329-3 0  9993",
        "tle_line2": "2 36036  98.4380 179.0374 0001083  83.3735 276.7577 14.39747368847680"
      },
      "geometry": {
        "type": "Point",
        "coordinates": [
          -0.19796374194784933,
          2.6172636345872964
        ]
      }
    },
    {
      "type": "Feature",
      "properties": {
        "norad_id": 36110,
        "name": "YAOGAN-7",
        "group": "resource",
        "lat": -20.57348111435658,
        "lon": -120.7542225846567,
        "alt_km": 640.0758390358469,
        "timestamp": "2025-12-20T11:30:28.027864+00:00",
        "meta_object_name": "YAOGAN-7",
        "meta_object_id": "2009-069A",
        "meta_epoch": "2025-12-20T03:28:34.500864",
        "meta_mean_motion": 14.77742358,
        "meta_eccentricity": 0.0023362,
        "meta_inclination": 98.0296,
        "meta_ra_of_asc_node": 235.8752,
        "meta_arg_of_pericenter": 256.0159,
        "meta_mean_anomaly": 103.8453,
        "meta_ephemeris_type": 0,
        "meta_classification_type": "U",
        "meta_norad_cat_id": 36110,
        "meta_element_set_no": 999,
        "meta_rev_at_epoch": 86318,
        "meta_bstar": 6.7749e-05,
        "meta_mean_motion_dot": 4.34e-06,
        "meta_mean_motion_ddot": 0,
        "tle_line1": "1 36110U 09069A   25354.14484376  .00000434  00000+0  67749-4 0  9998",
        "tle_line2": "2 36110  98.0296 235.8752 0023362 256.0159 103.8453 14.77742358863181"
      },
      "geometry": {
        "type": "Point",
        "coordinates": [
          -120.7542225846567,
          -20.57348111435658
        ]
      }
    },
    {
      "type": "Feature",
      "properties": {
        "norad_id": 36605,
        "name": "TANDEM-X",
        "group": "resource",
        "lat": -62.54394065828765,
        "lon": 14.321911730873813,
        "alt_km": 516.5505007701622,
        "timestamp": "2025-12-20T11:30:28.027875+00:00",
        "meta_object_name": "TANDEM-X",
        "meta_object_id": "2010-030A",
        "meta_epoch": "2025-12-19T12:04:27.806304",
        "meta_mean_motion": 15.19152689,
        "meta_eccentricity": 0.0001806,
        "meta_inclination": 97.4444,
        "meta_ra_of_asc_node": 358.7845,
        "meta_arg_of_pericenter": 78.9569,
        "meta_mean_anomaly": 281.1868,
        "meta_ephemeris_type": 0,
        "meta_classification_type": "U",
        "meta_norad_cat_id": 36605,
        "meta_element_set_no": 999,
        "meta_rev_at_epoch": 85936,
        "meta_bstar": 3.4902e-05,
        "meta_mean_motion_dot": 6.66e-06,
        "meta_mean_motion_ddot": 0,
        "tle_line1": "1 36605U 10030A   25353.50309961  .00000666  00000+0  34902-4 0  9994",
        "tle_line2": "2 36605  97.4444 358.7845 0001806  78.9569 281.1868 15.19152689859365"
      },
      "geometry": {
        "type": "Point",
        "coordinates": [
          14.321911730873813,
          -62.54394065828765
        ]
      }
    },
    {
      "type": "Feature",
      "properties": {
        "norad_id": 36795,
        "name": "CARTOSAT-2B",
        "group": "resource",
        "lat": -65.08945162950205,
        "lon": 60.39057112041943,
        "alt_km": 645.0123042422192,
        "timestamp": "2025-12-20T11:30:28.027885+00:00",
        "meta_object_name": "CARTOSAT-2B",
        "meta_object_id": "2010-035A",
        "meta_epoch": "2025-12-20T03:41:13.116192",
        "meta_mean_motion": 14.78733485,
        "meta_eccentricity": 0.0012791,
        "meta_inclination": 97.7847,
        "meta_ra_of_asc_node": 42.9433,
        "meta_arg_of_pericenter": 54.6946,
        "meta_mean_anomaly": 305.5459,
        "meta_ephemeris_type": 0,
        "meta_classification_type": "U",
        "meta_norad_cat_id": 36795,
        "meta_element_set_no": 999,
        "meta_rev_at_epoch": 83339,
        "meta_bstar": 3.9233e-05,
        "meta_mean_motion_dot": 2.38e-06,
        "meta_mean_motion_ddot": 0,
        "tle_line1": "1 36795U 10035A   25354.15362403  .00000238  00000+0  39233-4 0  9998",
        "tle_line2": "2 36795  97.7847  42.9433 0012791  54.6946 305.5459 14.78733485833390"
      },
      "geometry": {
        "type": "Point",
        "coordinates": [
          60.39057112041943,
          -65.08945162950205
        ]
      }
    },
    {
      "type": "Feature",
      "properties": {
        "norad_id": 36834,
        "name": "YAOGAN-10",
        "group": "resource",
        "lat": 1.7199128903182432,
        "lon": -165.51804366736786,
        "alt_km": 617.7052921830737,
        "timestamp": "2025-12-20T11:30:28.027895+00:00",
        "meta_object_name": "YAOGAN-10",
        "meta_object_id": "2010-038A",
        "meta_epoch": "2025-12-20T04:38:10.915296",
        "meta_mean_motion": 14.84634889,
        "meta_eccentricity": 0.0001436,
        "meta_inclination": 97.9134,
        "meta_ra_of_asc_node": 13.9585,
        "meta_arg_of_pericenter": 78.9942,
        "meta_mean_anomaly": 9.8346,
        "meta_ephemeris_type": 0,
        "meta_classification_type": "U",
        "meta_norad_cat_id": 36834,
        "meta_element_set_no": 999,
        "meta_rev_at_epoch": 83064,
        "meta_bstar": 0.00017542,
        "meta_mean_motion_dot": 1.429e-05,
        "meta_mean_motion_ddot": 0,
        "tle_line1": "1 36834U 10038A   25354.19318189  .00001429  00000+0  17542-3 0  9992",
        "tle_line2": "2 36834  97.9134  13.9585 0001436  78.9942   9.8346 14.84634889830649"
      },
      "geometry": {
        "type": "Point",
        "coordinates": [
          -165.51804366736786,
          1.7199128903182432
        ]
      }
    },
    {
      "type": "Feature",
      "properties": {
        "norad_id": 37216,
        "name": "COSMO-SKYMED 4",
        "group": "resource",
        "lat": 32.0743674811743,
        "lon": 170.70625558049713,
        "alt_km": 620.0775929391648,
        "timestamp": "2025-12-20T11:30:28.027905+00:00",
        "meta_object_name": "COSMO-SKYMED 4",
        "meta_object_id": "2010-060A",
        "meta_epoch": "2025-12-20T04:52:51.566304",
        "meta_mean_motion": 14.82153161,
        "meta_eccentricity": 0.0001397,
        "meta_inclination": 97.8798,
        "meta_ra_of_asc_node": 175.4135,
        "meta_arg_of_pericenter": 83.7669,
        "meta_mean_anomaly": 276.3703,
        "meta_ephemeris_type": 0,
        "meta_classification_type": "U",
        "meta_norad_cat_id": 37216,
        "meta_element_set_no": 999,
        "meta_rev_at_epoch": 81805,
        "meta_bstar": 7.3682e-05,
        "meta_mean_motion_dot": 5.34e-06,
        "meta_mean_motion_ddot": 0,
        "tle_line1": "1 37216U 10060A   25354.20337461  .00000534  00000+0  73682-4 0  9992",
        "tle_line2": "2 37216  97.8798 175.4135 0001397  83.7669 276.3703 14.82153161818056"
      },
      "geometry": {
        "type": "Point",
        "coordinates": [
          170.70625558049713,
          32.0743674811743
        ]
      }
    },
    {
      "type": "Feature",
      "properties": {
        "norad_id": 37387,
        "name": "RESOURCESAT-2",
        "group": "resource",
        "lat": 65.1842776830532,
        "lon": -102.46205879153422,
        "alt_km": 813.6670107184218,
        "timestamp": "2025-12-20T11:30:28.027915+00:00",
        "meta_object_name": "RESOURCESAT-2",
        "meta_object_id": "2011-015A",
        "meta_epoch": "2025-12-20T04:13:14.196000",
        "meta_mean_motion": 14.21600026,
        "meta_eccentricity": 0.0006082,
        "meta_inclination": 98.7867,
        "meta_ra_of_asc_node": 57.694,
        "meta_arg_of_pericenter": 22.6144,
        "meta_mean_anomaly": 337.53,
        "meta_ephemeris_type": 0,
        "meta_classification_type": "U",
        "meta_norad_cat_id": 37387,
        "meta_element_set_no": 999,
        "meta_rev_at_epoch": 76074,
        "meta_bstar": 6.6613e-05,
        "meta_mean_motion_dot": 1.02e-06,
        "meta_mean_motion_ddot": 0,
        "tle_line1": "1 37387U 11015A   25354.17585875  .00000102  00000+0  66613-4 0  9999",
        "tle_line2": "2 37387  98.7867  57.6940 0006082  22.6144 337.5300 14.21600026760748"
      },
      "geometry": {
        "type": "Point",
        "coordinates": [
          -102.46205879153422,
          65.1842776830532
        ]
      }
    }
  ]
}